[{"OBJECT_NAME":"VSP RF B1","OBJECT_ID":"2024-043AR","EPOCH":"2026-03-09T22:40:29.479296","MEAN_MOTION":15.26694159,"ECCENTRICITY":0.00102608,"INCLINATION":97.5446,"RA_OF_ASC_NODE":204.7052,"ARG_OF_PERICENTER":220.7435,"MEAN_ANOMALY":139.3037,"EPHEMERIS_TYPE":0,"CLASSIFICATION_TYPE":"U","NORAD_CAT_ID":59137,"ELEMENT_SET_NO":999,"REV_AT_EPOCH":11187,"BSTAR":0.00024406819,"MEAN_MOTION_DOT":6.341e-5,"MEAN_MOTION_DDOT":0},{"OBJECT_NAME":"STARLINK-33684","OBJECT_ID":"2025-083R","EPOCH":"2026-03-09T04:27:31.166496","MEAN_MOTION":15.27602371,"ECCENTRICITY":0.00020089,"INCLINATION":43.0025,"RA_OF_ASC_NODE":7.7219,"ARG_OF_PERICENTER":254.1506,"MEAN_ANOMALY":105.9124,"EPHEMERIS_TYPE":0,"CLASSIFICATION_TYPE":"U","NORAD_CAT_ID":63649,"ELEMENT_SET_NO":999,"REV_AT_EPOCH":4999,"BSTAR":0.0011578286,"MEAN_MOTION_DOT":0.00031758,"MEAN_MOTION_DDOT":0}]
